ONEWEB-0456             
1 51646U 22012AA  25343.67128866 -.00000705  00000+0 -20554-2 0  9991
2 51646  87.8821  74.0112 0001707  99.0435 261.0885 13.10373931184529
ONEWEB-0457             
1 51647U 22012AB  25343.72441544  .00000148  00000+0  38709-3 0  9990
2 51647  87.8802  74.0472 0001254 116.6676 243.4580 13.10375956184534
ONEWEB-0458             
1 51648U 22012AC  25343.51691383 -.00000703  00000+0 -20500-2 0  9994
2 51648  87.8816  74.0628 0001759 109.3524 250.7794 13.10373329184466
ONEWEB-0461             
1 51649U 22012AD  25343.76834870  .00000086  00000+0  18780-3 0  9992
2 51649  87.9122  43.5097 0001647 100.4644 259.6673 13.17649215188948
ONEWEB-0463             
1 51650U 22012AE  25343.44604268  .00000112  00000+0  25604-3 0  9998
2 51650  87.9104  43.6180 0001741 102.8036 257.3290 13.17648367188688
ONEWEB-0464             
1 51651U 22012AF  25343.51359258 -.00000574  00000+0 -16819-2 0  9994
2 51651  87.8804  74.0991 0001845  97.2710 262.8627 13.10371854184480
ONEWEB-0468             
1 51652U 22012AG  25343.52023083 -.00000635  00000+0 -18557-2 0  9999
2 51652  87.8810  74.0909 0001866 103.2805 256.8531 13.10374058184467
ONEWEB-0473             
1 51653U 22012AH  25343.73437334 -.00000320  00000+0 -95283-3 0  9994
2 51653  87.8806  74.0513 0001779 106.6942 253.4380 13.10370338184491
ONEWEB-0474             
1 51654U 22012AJ  25343.72608076  .00000103  00000+0  25950-3 0  9998
2 51654  87.8812  74.0192 0001904 101.1675 258.9666 13.10370308184488
ONEWEB-0475             
1 51655U 22012AK  25343.23004323  .00000024  00000+0  28323-4 0  9990
2 51655  87.9110  43.6499 0002471 103.2435 256.8972 13.17649301188671
ONEWEB-0490             
1 54113U 22138A   25343.74423903  .00000047  00000+0  85928-4 0  9995
2 54113  87.9206 342.6510 0001931  84.9433 275.1920 13.19724410151841
ONEWEB-0492             
1 54114U 22138B   25343.69368797  .00000035  00000+0  56260-4 0  9993
2 54114  87.9199 342.6765 0001823  81.5078 278.6261 13.19725305151843
ONEWEB-0495             
1 54115U 22138C   25343.74738517  .00000056  00000+0  10678-3 0  9996
2 54115  87.9194 342.6694 0002397  80.1327 280.0076 13.19723914151833
ONEWEB-0497             
1 54116U 22138D   25343.76002760  .00000061  00000+0  11922-3 0  9992
2 54116  87.9199 342.6532 0001853  86.6140 273.5205 13.19724131151822
ONEWEB-0499             
1 54117U 22138E   25343.74345266  .00000004  00000+0 -22111-4 0  9993
2 54117  87.9197 342.6696 0001988  91.0856 269.0505 13.19725474151830
ONEWEB-0500             
1 54118U 22138F   25343.44254732  .00000059  00000+0  11569-3 0  9991
2 54118  87.9200 342.7169 0001717  87.4252 272.7078 13.19723943151803
ONEWEB-0501             
1 54119U 22138G   25343.70001455  .00000134  00000+0  30255-3 0  9990
2 54119  87.9209 342.6638 0002124  84.7273 275.4102 13.19724971151810
ONEWEB-0502             
1 54120U 22138H   25343.76161192  .00000044  00000+0  76957-4 0  9993
2 54120  87.9207 342.6331 0002067  89.0966 271.0404 13.19724728151843
ONEWEB-0503             
1 54121U 22138J   25343.75055039  .00000087  00000+0  18477-3 0  9994
2 54121  87.9205 342.6394 0001870  97.3738 262.7607 13.19724398151835
ONEWEB-0504             
1 54122U 22138K   25343.51045906  .00000087  00000+0  18413-3 0  9991
2 54122  87.9200 342.7035 0002048  90.4157 269.7211 13.19723481151819
ONEWEB-0505             
1 54123U 22138L   25343.73475714  .00000070  00000+0  14178-3 0  9996
2 54123  87.9207 342.6486 0002306  85.7542 274.3854 13.19724223151829
ONEWEB-0506             
1 54124U 22138M   25343.70948867  .00000066  00000+0  13338-3 0  9990
2 54124  87.9207 342.6509 0002003  88.0026 272.1336 13.19724455151810
ONEWEB-0507             
1 54125U 22138N   25343.42675339  .00000122  00000+0  27341-3 0  9993
2 54125  87.9189 342.7427 0001960  84.8230 275.3127 13.19724359151829
ONEWEB-0508             
1 54126U 22138P   25343.42359749  .00000016  00000+0  80843-5 0  9998
2 54126  87.9198 342.7369 0002087  82.4670 277.6700 13.19725236151803
ONEWEB-0509             
1 54127U 22138Q   25343.70158510  .00000122  00000+0  27325-3 0  9995
2 54127  87.9209 342.6517 0001912  86.8467 273.2885 13.19724415151814
ONEWEB-0510             
1 54128U 22138R   25343.66374566  .00000140  00000+0  31226-3 0  9997
2 54128  87.9194 312.2321 0001328  92.7401 267.3884 13.20770125154265
ONEWEB-0511             
1 54129U 22138S   25343.69843315  .00000095  00000+0  20504-3 0  9990
2 54129  87.9212 342.6558 0001937  96.4978 263.6375 13.19724727151842
ONEWEB-0512             
1 54130U 22138T   25343.46308126  .00000082  00000+0  17168-3 0  9991
2 54130  87.9195 342.7274 0002143  88.5146 271.6232 13.19724965151787
ONEWEB-0513             
1 54131U 22138U   25343.69751512  .00000063  00000+0  12442-3 0  9997
2 54131  87.9210 342.6416 0002641  93.9304 266.2131 13.20259857151718
ONEWEB-0514             
1 54132U 22138V   25343.70632189  .00000021  00000+0  20054-4 0  9991
2 54132  87.9201 342.6637 0001720  91.9077 268.2253 13.19724026151839
ONEWEB-0515             
1 54133U 22138W   25343.87840095  .00000071  00000+0  14266-3 0  9999
2 54133  87.9203 312.1758 0001107  61.4188 298.7056 13.20769947154310
ONEWEB-0516             
1 54134U 22138X   25343.45360430  .00000040  00000+0  67146-4 0  9996
2 54134  87.9190 342.7342 0001822  84.8892 275.2448 13.19725047151806
ONEWEB-0517             
1 54135U 22138Y   25343.73632865  .00000069  00000+0  13885-3 0  9993
2 54135  87.9208 342.6573 0001881  98.4209 261.7137 13.19723750151848
ONEWEB-0518             
1 54136U 22138Z   25343.45202253  .00000051  00000+0  94356-4 0  9991
2 54136  87.9188 342.7364 0001934  86.8346 273.3008 13.19724491151802
ONEWEB-0519             
1 54137U 22138AA  25343.70476286  .00000026  00000+0  32839-4 0  9999
2 54137  87.9205 342.6550 0001910  96.1837 263.9513 13.19726245151841
ONEWEB-0520             
1 54138U 22138AB  25343.51204615  .00000037  00000+0  59875-4 0  9995
2 54138  87.9208 342.6975 0002035  84.7203 275.4162 13.19724537151801
ONEWEB-0521             
1 54139U 22138AC  25343.69685049  .00000092  00000+0  19837-3 0  9993
2 54139  87.9206 342.6453 0001768  96.5714 263.5620 13.19725046151770
ONEWEB-0522             
1 54140U 22138AD  25343.44886084  .00000056  00000+0  10784-3 0  9992
2 54140  87.9206 342.6960 0001931  87.7935 272.3419 13.19726710151788
ONEWEB-0523             
1 54141U 22138AE  25343.86575813 -.00000220  00000+0 -57334-3 0  9991
2 54141  87.9190 312.1963 0001067  97.7335 262.3920 13.20771364154316
ONEWEB-0524             
1 54142U 22138AF  25343.85472922  .00000081  00000+0  16739-3 0  9995
2 54142  87.9192 312.2009 0001326  52.4666 307.6588 13.20771378154312
ONEWEB-0525             
1 54143U 22138AG  25343.69527227  .00000128  00000+0  28623-3 0  9994
2 54143  87.9199 342.6670 0002043  84.7218 275.4148 13.19725448151832
ONEWEB-0526             
1 54144U 22138AH  25343.42516884  .00000085  00000+0  18004-3 0  9997
2 54144  87.9206 342.7094 0001843  86.7984 273.3360 13.19724025151778
ONEWEB-0529             
1 54145U 22138AJ  25343.42833133  .00000041  00000+0  70859-4 0  9996
2 54145  87.9192 342.7363 0001992  84.5390 275.5970 13.19724467151797
ONEWEB-0531             
1 54146U 22138AK  25343.84052458 -.00000049  00000+0 -15357-3 0  9997
2 54146  87.9199 312.1966 0000872  77.0096 283.1135 13.20770763154312
ONEWEB-0535             
1 54147U 22138AL  25343.46148753 -.00000006  00000+0 -47389-4 0  9994
2 54147  87.9203 342.6970 0001483  98.7491 261.3810 13.19727059151818
ONEWEB-0536             
1 54148U 22138AM  25343.67637012  .00000066  00000+0  13119-3 0  9996
2 54148  87.9190 312.2728 0000835  64.3051 295.8168 13.20774094154284
ONEWEB-0527             
1 54642U 22166A   25343.77830500 -.00000140  00000+0 -36973-3 0  9992
2 54642  87.9217 281.7785 0001790  76.0959 284.0374 13.21824876146515
ONEWEB-0528             
1 54643U 22166B   25343.78489435  .00000047  00000+0  82650-4 0  9999
2 54643  87.9218 281.7809 0001858  75.0646 285.0694 13.21828083146522
ONEWEB-0539             
1 54644U 22166C   25343.36857892  .00000020  00000+0  17438-4 0  9993
2 54644  87.9215 281.8297 0001970  81.5665 278.5692 13.21825971146461
ONEWEB-0540             
1 54645U 22166D   25343.60237602  .00000078  00000+0  15802-3 0  9997
2 54645  87.9215 281.8210 0001786  82.8333 277.3004 13.21824102146489
ONEWEB-0542             
1 54646U 22166E   25343.75693801  .00000006  00000+0 -16905-4 0  9999
2 54646  87.9214 281.7487 0001991  89.7131 270.4231 13.21827799146519
ONEWEB-0545             
1 54647U 22166F   25343.79807743 -.00000031  00000+0 -10663-3 0  9999
2 54647  87.9216 281.7611 0001985  89.2262 270.9099 13.21826371146482
ONEWEB-0580             
1 54648U 22166G   25343.77174623  .00000068  00000+0  13199-3 0  9997
2 54648  87.9217 281.7652 0001791  88.9457 271.1882 13.21824894146522
ONEWEB-0582             
1 54649U 22166H   25343.81452660 -.00000031  00000+0 -10620-3 0  9991
2 54649  87.9217 281.7496 0001891  93.3678 266.7672 13.21824695146509
ONEWEB-0583             
1 54650U 22166J   25343.59895501  .00000078  00000+0  15656-3 0  9996
2 54650  87.9216 281.8173 0001875  80.7539 279.3806 13.21824886146489
ONEWEB-0584             
1 54651U 22166K   25343.77008691  .00000067  00000+0  13014-3 0  9997
2 54651  87.9217 281.7696 0001708  89.8696 270.2634 13.21824244146497
ONEWEB-0585             
1 54652U 22166L   25343.79477329  .00000039  00000+0  63796-4 0  9990
2 54652  87.9215 281.7493 0001749  73.8325 286.3001 13.21827202146503
ONEWEB-0586             
1 54653U 22166M   25343.80795453 -.00000056  00000+0 -16604-3 0  9990
2 54653  87.9216 281.7720 0001834  82.8809 277.2533 13.21824699146506
ONEWEB-0587             
1 54654U 22166N   25343.81782145 -.00000003  00000+0 -39441-4 0  9993
2 54654  87.9226 281.7256 0001729  64.9317 295.1996 13.21825339146661
